PROBA-1                 
1 26958U 01049B   26194.28801926  .00001827  00000+0  12042-3 0  9991
2 26958  97.9606 203.7330 0055900  36.0143 324.4830 15.07612246347555
CUTE-1 (CO-55)          
1 27844U 03031E   26194.23954276  .00000158  00000+0  87036-4 0  9993
2 27844  98.6742 202.4711 0010799 107.7060 252.5299 14.24350794195386
CUBESAT XI-IV (CO-57)   
1 27848U 03031J   26193.53826736  .00000128  00000+0  75348-4 0  9998
2 27848  98.6772 201.4707 0010448 126.3839 233.8305 14.23633637194983
APRIZESAT 4             
1 35684U 09041D   26193.74598681  .00000345  00000+0  48023-4 0  9991
2 35684  98.1404 269.5752 0042095 237.6607 122.0528 14.83911924915154
APRIZESAT 5             
1 37792U 11044E   26194.28721491  .00000422  00000+0  60803-4 0  9992
2 37792  98.2450 128.0685 0050713 279.0096  80.5378 14.81125729802659
APRIZESAT 6             
1 37793U 11044F   26193.75595536  .00000372  00000+0  60008-4 0  9994
2 37793  98.2341 104.7757 0043258   6.0555  56.2773 14.76954510800923
PROBA-V                 
1 39159U 13021A   26193.91359827  .00000030  00000+0  30983-4 0  9998
2 39159  98.3604 171.2523 0005320  65.3882 294.7852 14.23603242684778
APRIZESAT 7             
1 39416U 13066A   26194.31679322  .00000438  00000+0  48772-4 0  9990
2 39416  97.7721 147.1636 0037125 123.3134 237.1649 14.91616895685125
APRIZESAT 8             
1 39425U 13066K   26194.30577240  .00000398  00000+0  49047-4 0  9996
2 39425  97.8229 141.4115 0045330 198.1533 161.8067 14.87694801683558
BUGSAT-1 (TITA)         
1 40014U 14033E   26194.24469407  .00004128  00000+0  21739-3 0  9997
2 40014  98.0439 288.3221 0029202  92.3653 268.0922 15.15871127659785
SAUDISAT 4              
1 40016U 14033G   26193.88538433  .00000266  00000+0  41939-4 0  9998
2 40016  97.7614 339.1360 0044444 351.6287   8.4179 14.79574332649872
APRIZESAT 9             
1 40018U 14033J   26194.20313195  .00000351  00000+0  58823-4 0  9998
2 40018  97.9091 326.7703 0067386 116.2105 244.6052 14.74251105647396
APRIZESAT 10            
1 40019U 14033K   26194.31711068  .00000314  00000+0  57208-4 0  9997
2 40019  97.9678 320.6981 0078596 189.3619 170.6128 14.70909592646099
TECHDEMOSAT-1 (TDS-1)   
1 40076U 14037H   26194.27341694  .00004634  00000+0  26193-3 0  9990
2 40076  98.3822 189.0806 0006741 164.8135 195.3298 15.13661881652177
TECHNOSAT               
1 42829U 17042E   26194.31156876  .00002008  00000+0  14488-3 0  9995
2 42829  97.4311 350.9806 0017606   9.5606 350.5952 15.05105208490637
FLYING LAPTOP           
1 42831U 17042G   26194.31386306  .00001880  00000+0  15001-3 0  9990
2 42831  97.4792 348.8620 0019774  38.5380 321.7252 15.01304516490375
HAWK-A                  
1 43765U 18099H   26193.67931597  .00004140  00000+0  16642-3 0  9990
2 43765  97.3903 245.5853 0034451 192.8190 167.2175 15.24944360416982
HAWK-B                  
1 43794U 18099AN  26194.12562476  .00003736  00000+0  15939-3 0  9997
2 43794  97.3951 245.3861 0031175 209.4603 150.4878 15.23101586416986
HAWK-C                  
1 43799U 18099AT  26193.72865411  .00005004  00000+0  17915-3 0  9998
2 43799  97.3881 246.6730 0040040 192.5496 167.4750 15.28466075417817
SALSAT                  
1 46495U 20068K   26193.91391395  .00004828  00000+0  16824-3 0  9990
2 46495  97.8853 198.5521 0008922 201.3461 158.7407 15.30153171319292
HAWK-2C                 
1 47502U 21006CT  26194.16572607  .00004014  00000+0  12052-3 0  9994
2 47502  97.2268 237.9600 0008628 106.6131 253.6060 15.34973140303480
HAWK-2A                 
1 47505U 21006CW  26194.16797016  .00003988  00000+0  11972-3 0  9999
2 47505  97.2311 238.6553 0008146 109.8797 250.3325 15.34987922303486
HAWK-2B                 
1 47508U 21006CZ  26194.03129617  .00004954  00000+0  14753-3 0  9998
2 47508  97.2180 236.8123 0008679 108.6598 251.5589 15.35117562303462
HAWK-3B                 
1 48931U 21059BE  26193.55364624  .00032206  00000+0  25051-3 0  9996
2 48931  97.6638  32.7011 0004238 208.8876 151.2152 15.71695978281833
HAWK-3C                 
1 48948U 21059BX  26193.55333511  .00035057  00000+0  27246-3 0  9990
2 48948  97.6757  38.4300 0004501 208.2392 151.8627 15.71698478281838
HAWK-3A                 
1 48957U 21059CG  26193.93522471  .00037729  00000+0  29267-3 0  9990
2 48957  97.6702  36.0341 0004409 210.6539 149.4466 15.71730090281891
HAWK-5C                 
1 52754U 22057Y   26194.28807797  .00011605  00000+0  19264-3 0  9996
2 52754  97.6607 355.6598 0003011 354.4378   5.6840 15.52281591230399
HAWK-5B                 
1 52756U 22057AA  26194.28789075  .00011615  00000+0  19281-3 0  9996
2 52756  97.6622 354.0126 0003658 340.2436  19.8674 15.52279090230396
